[
  {
    "OBJECT_NAME": "STARLINK-31081",
    "OBJECT_ID": "23203Q",
    "EPOCH": "2025-11-11T03:52:37.336800",
    "MEAN_MOTION": 15.2757576,
    "ECCENTRICITY": 0.0001058,
    "INCLINATION": 43.0016,
    "RA_OF_ASC_NODE": 19.9532,
    "ARG_OF_PERICENTER": 278.3291,
    "MEAN_ANOMALY": 81.7441,
    "EPHEMERIS_TYPE": 0,
    "CLASSIFICATION_TYPE": "U",
    "NORAD_CAT_ID": 58632,
    "ELEMENT_SET_NO": 999,
    "REV_AT_EPOCH": 10662,
    "BSTAR": 2.2114000000000002e-05,
    "MEAN_MOTION_DOT": 3.46e-06,
    "MEAN_MOTION_DDOT": 0.0,
    "TLE_LINE1": "1 58632U 23203Q   25315.16154325  .00000346  00000+0  22114-4 0  9993",
    "TLE_LINE2": "2 58632  43.0016  19.9532 0001058 278.3291  81.7441 15.27575760106620",
    "COMMENT": "Grouped by shell and plane from TLE"
  },
  {
    "OBJECT_NAME": "STARLINK-31022",
    "OBJECT_ID": "23203R",
    "EPOCH": "2025-11-11T06:00:04.433184",
    "MEAN_MOTION": 15.25900009,
    "ECCENTRICITY": 7.29e-05,
    "INCLINATION": 43.0009,
    "RA_OF_ASC_NODE": 19.7616,
    "ARG_OF_PERICENTER": 262.8893,
    "MEAN_ANOMALY": 97.1876,
    "EPHEMERIS_TYPE": 0,
    "CLASSIFICATION_TYPE": "U",
    "NORAD_CAT_ID": 58633,
    "ELEMENT_SET_NO": 999,
    "REV_AT_EPOCH": 10663,
    "BSTAR": 0.00012775000000000002,
    "MEAN_MOTION_DOT": 3.085e-05,
    "MEAN_MOTION_DDOT": 0.0,
    "TLE_LINE1": "1 58633U 23203R   25315.25005131  .00003085  00000+0  12775-3 0  9998",
    "TLE_LINE2": "2 58633  43.0009  19.7616 0000729 262.8893  97.1876 15.25900009106634",
    "COMMENT": "Grouped by shell and plane from TLE"
  },
  {
    "OBJECT_NAME": "STARLINK-31025",
    "OBJECT_ID": "23203S",
    "EPOCH": "2025-11-11T04:48:36.300096",
    "MEAN_MOTION": 15.27583158,
    "ECCENTRICITY": 6.26e-05,
    "INCLINATION": 42.9946,
    "RA_OF_ASC_NODE": 15.8726,
    "ARG_OF_PERICENTER": 284.5458,
    "MEAN_ANOMALY": 75.5324,
    "EPHEMERIS_TYPE": 0,
    "CLASSIFICATION_TYPE": "U",
    "NORAD_CAT_ID": 58634,
    "ELEMENT_SET_NO": 999,
    "REV_AT_EPOCH": 10667,
    "BSTAR": 0.00012776,
    "MEAN_MOTION_DOT": 3.256e-05,
    "MEAN_MOTION_DDOT": 0.0,
    "TLE_LINE1": "1 58634U 23203S   25315.20042014  .00003256  00000+0  12776-3 0  9996",
    "TLE_LINE2": "2 58634  42.9946  15.8726 0000626 284.5458  75.5324 15.27583158106672",
    "COMMENT": "Grouped by shell and plane from TLE"
  },
  {
    "OBJECT_NAME": "STARLINK-31018",
    "OBJECT_ID": "23203T",
    "EPOCH": "2025-11-11T04:21:05.234112",
    "MEAN_MOTION": 15.27577584,
    "ECCENTRICITY": 1.99e-05,
    "INCLINATION": 42.9986,
    "RA_OF_ASC_NODE": 16.668,
    "ARG_OF_PERICENTER": 334.1493,
    "MEAN_ANOMALY": 25.9349,
    "EPHEMERIS_TYPE": 0,
    "CLASSIFICATION_TYPE": "U",
    "NORAD_CAT_ID": 58635,
    "ELEMENT_SET_NO": 999,
    "REV_AT_EPOCH": 10666,
    "BSTAR": 0.00015983,
    "MEAN_MOTION_DOT": 4.139e-05,
    "MEAN_MOTION_DDOT": 0.0,
    "TLE_LINE1": "1 58635U 23203T   25315.18131058  .00004139  00000+0  15983-3 0  9995",
    "TLE_LINE2": "2 58635  42.9986  16.6680 0000199 334.1493  25.9349 15.27577584106662",
    "COMMENT": "Grouped by shell and plane from TLE"
  },
  {
    "OBJECT_NAME": "STARLINK-31008",
    "OBJECT_ID": "23203U",
    "EPOCH": "2025-11-11T05:58:56.569440",
    "MEAN_MOTION": 15.27583143,
    "ECCENTRICITY": 0.0001389,
    "INCLINATION": 43.0031,
    "RA_OF_ASC_NODE": 16.3162,
    "ARG_OF_PERICENTER": 269.2846,
    "MEAN_ANOMALY": 90.7846,
    "EPHEMERIS_TYPE": 0,
    "CLASSIFICATION_TYPE": "U",
    "NORAD_CAT_ID": 58636,
    "ELEMENT_SET_NO": 999,
    "REV_AT_EPOCH": 10667,
    "BSTAR": 8.7584e-05,
    "MEAN_MOTION_DOT": 2.149e-05,
    "MEAN_MOTION_DDOT": 0.0,
    "TLE_LINE1": "1 58636U 23203U   25315.24926585  .00002149  00000+0  87584-4 0  9996",
    "TLE_LINE2": "2 58636  43.0031  16.3162 0001389 269.2846  90.7846 15.27583143106671",
    "COMMENT": "Grouped by shell and plane from TLE"
  },
  {
    "OBJECT_NAME": "STARLINK-31077",
    "OBJECT_ID": "23203V",
    "EPOCH": "2025-11-11T05:49:41.423520",
    "MEAN_MOTION": 15.27566996,
    "ECCENTRICITY": 0.0001638,
    "INCLINATION": 43.0018,
    "RA_OF_ASC_NODE": 16.2674,
    "ARG_OF_PERICENTER": 263.8369,
    "MEAN_ANOMALY": 96.2296,
    "EPHEMERIS_TYPE": 0,
    "CLASSIFICATION_TYPE": "U",
    "NORAD_CAT_ID": 58637,
    "ELEMENT_SET_NO": 999,
    "REV_AT_EPOCH": 10667,
    "BSTAR": 0.00024838,
    "MEAN_MOTION_DOT": 6.576e-05,
    "MEAN_MOTION_DDOT": 0.0,
    "TLE_LINE1": "1 58637U 23203V   25315.24284055  .00006576  00000+0  24838-3 0  9996",
    "TLE_LINE2": "2 58637  43.0018  16.2674 0001638 263.8369  96.2296 15.27566996106678",
    "COMMENT": "Grouped by shell and plane from TLE"
  },
  {
    "OBJECT_NAME": "STARLINK-31070",
    "OBJECT_ID": "23203X",
    "EPOCH": "2025-11-11T04:30:20.301408",
    "MEAN_MOTION": 15.27571977,
    "ECCENTRICITY": 0.000121,
    "INCLINATION": 43.0005,
    "RA_OF_ASC_NODE": 16.7106,
    "ARG_OF_PERICENTER": 251.3448,
    "MEAN_ANOMALY": 108.7272,
    "EPHEMERIS_TYPE": 0,
    "CLASSIFICATION_TYPE": "U",
    "NORAD_CAT_ID": 58639,
    "ELEMENT_SET_NO": 999,
    "REV_AT_EPOCH": 10543,
    "BSTAR": 9.5796e-05,
    "MEAN_MOTION_DOT": 2.374e-05,
    "MEAN_MOTION_DDOT": 0.0,
    "TLE_LINE1": "1 58639U 23203X   25315.18773497  .00002374  00000+0  95796-4 0  9998",
    "TLE_LINE2": "2 58639  43.0005  16.7106 0001210 251.3448 108.7272 15.27571977105438",
    "COMMENT": "Grouped by shell and plane from TLE"
  },
  {
    "OBJECT_NAME": "STARLINK-31181",
    "OBJECT_ID": "24005U",
    "EPOCH": "2025-11-11T05:16:28.133184",
    "MEAN_MOTION": 15.27673091,
    "ECCENTRICITY": 0.0001362,
    "INCLINATION": 43.0023,
    "RA_OF_ASC_NODE": 16.569,
    "ARG_OF_PERICENTER": 280.46,
    "MEAN_ANOMALY": 79.6098,
    "EPHEMERIS_TYPE": 0,
    "CLASSIFICATION_TYPE": "U",
    "NORAD_CAT_ID": 58746,
    "ELEMENT_SET_NO": 999,
    "REV_AT_EPOCH": 10416,
    "BSTAR": 0.0,
    "MEAN_MOTION_DOT": -0.00024033,
    "MEAN_MOTION_DDOT": 0.0,
    "TLE_LINE1": "1 58746U 24005U   25315.21977006 -.00024033  00000+0 -86418-3 0  9992",
    "TLE_LINE2": "2 58746  43.0023  16.5690 0001362 280.4600  79.6098 15.27673091104165",
    "COMMENT": "Grouped by shell and plane from TLE"
  },
  {
    "OBJECT_NAME": "STARLINK-31171",
    "OBJECT_ID": "24017J",
    "EPOCH": "2025-11-11T03:41:17.115648",
    "MEAN_MOTION": 15.30201709,
    "ECCENTRICITY": 0.0001195,
    "INCLINATION": 53.1624,
    "RA_OF_ASC_NODE": 11.352,
    "ARG_OF_PERICENTER": 113.5225,
    "MEAN_ANOMALY": 246.5901,
    "EPHEMERIS_TYPE": 0,
    "CLASSIFICATION_TYPE": "U",
    "NORAD_CAT_ID": 58834,
    "ELEMENT_SET_NO": 999,
    "REV_AT_EPOCH": 10223,
    "BSTAR": 4.8969000000000005e-05,
    "MEAN_MOTION_DOT": 1.091e-05,
    "MEAN_MOTION_DDOT": 0.0,
    "TLE_LINE1": "1 58834U 24017J   25315.15367032  .00001091  00000+0  48969-4 0  9995",
    "TLE_LINE2": "2 58834  53.1624  11.3520 0001195 113.5225 246.5901 15.30201709102231",
    "COMMENT": "Grouped by shell and plane from TLE"
  },
  {
    "OBJECT_NAME": "STARLINK-31629",
    "OBJECT_ID": "24050B",
    "EPOCH": "2025-11-11T07:27:24.146496",
    "MEAN_MOTION": 15.30187553,
    "ECCENTRICITY": 0.0001878,
    "INCLINATION": 53.1592,
    "RA_OF_ASC_NODE": 10.8927,
    "ARG_OF_PERICENTER": 18.3688,
    "MEAN_ANOMALY": 341.7381,
    "EPHEMERIS_TYPE": 0,
    "CLASSIFICATION_TYPE": "U",
    "NORAD_CAT_ID": 59255,
    "ELEMENT_SET_NO": 999,
    "REV_AT_EPOCH": 9242,
    "BSTAR": 0.00015719,
    "MEAN_MOTION_DOT": 4.297e-05,
    "MEAN_MOTION_DDOT": 0.0,
    "TLE_LINE1": "1 59255U 24050B   25315.31069614  .00004297  00000+0  15719-3 0  9990",
    "TLE_LINE2": "2 59255  53.1592  10.8927 0001878  18.3688 341.7381 15.30187553 92420",
    "COMMENT": "Grouped by shell and plane from TLE"
  },
  {
    "OBJECT_NAME": "STARLINK-31652",
    "OBJECT_ID": "24050C",
    "EPOCH": "2025-11-11T04:01:02.410464",
    "MEAN_MOTION": 15.30196535,
    "ECCENTRICITY": 0.0001169,
    "INCLINATION": 53.1607,
    "RA_OF_ASC_NODE": 11.4225,
    "ARG_OF_PERICENTER": 78.1797,
    "MEAN_ANOMALY": 281.9335,
    "EPHEMERIS_TYPE": 0,
    "CLASSIFICATION_TYPE": "U",
    "NORAD_CAT_ID": 59256,
    "ELEMENT_SET_NO": 999,
    "REV_AT_EPOCH": 9240,
    "BSTAR": 0.00013370000000000002,
    "MEAN_MOTION_DOT": 3.602e-05,
    "MEAN_MOTION_DDOT": 0.0,
    "TLE_LINE1": "1 59256U 24050C   25315.16738901  .00003602  00000+0  13370-3 0  9996",
    "TLE_LINE2": "2 59256  53.1607  11.4225 0001169  78.1797 281.9335 15.30196535 92406",
    "COMMENT": "Grouped by shell and plane from TLE"
  },
  {
    "OBJECT_NAME": "STARLINK-31637",
    "OBJECT_ID": "24050E",
    "EPOCH": "2025-11-11T03:51:55.703232",
    "MEAN_MOTION": 15.3020262,
    "ECCENTRICITY": 0.0001361,
    "INCLINATION": 53.161,
    "RA_OF_ASC_NODE": 11.3841,
    "ARG_OF_PERICENTER": 75.6677,
    "MEAN_ANOMALY": 284.4475,
    "EPHEMERIS_TYPE": 0,
    "CLASSIFICATION_TYPE": "U",
    "NORAD_CAT_ID": 59258,
    "ELEMENT_SET_NO": 999,
    "REV_AT_EPOCH": 9240,
    "BSTAR": 0.00034522000000000003,
    "MEAN_MOTION_DOT": 9.88e-05,
    "MEAN_MOTION_DDOT": 0.0,
    "TLE_LINE1": "1 59258U 24050E   25315.16106138  .00009880  00000+0  34522-3 0  9995",
    "TLE_LINE2": "2 59258  53.1610  11.3841 0001361  75.6677 284.4475 15.30202620 92404",
    "COMMENT": "Grouped by shell and plane from TLE"
  },
  {
    "OBJECT_NAME": "STARLINK-31506",
    "OBJECT_ID": "24050F",
    "EPOCH": "2025-11-11T07:22:49.173312",
    "MEAN_MOTION": 15.30196334,
    "ECCENTRICITY": 0.0001332,
    "INCLINATION": 53.1598,
    "RA_OF_ASC_NODE": 10.8732,
    "ARG_OF_PERICENTER": 38.9378,
    "MEAN_ANOMALY": 321.1718,
    "EPHEMERIS_TYPE": 0,
    "CLASSIFICATION_TYPE": "U",
    "NORAD_CAT_ID": 59259,
    "ELEMENT_SET_NO": 999,
    "REV_AT_EPOCH": 9242,
    "BSTAR": 0.0,
    "MEAN_MOTION_DOT": -5.302e-05,
    "MEAN_MOTION_DDOT": 0.0,
    "TLE_LINE1": "1 59259U 24050F   25315.30751358 -.00005302  00000+0 -16702-3 0  9999",
    "TLE_LINE2": "2 59259  53.1598  10.8732 0001332  38.9378 321.1718 15.30196334 92426",
    "COMMENT": "Grouped by shell and plane from TLE"
  }
]